NORAD_CAT_ID,OBJECT_NAME,OBJECT_TYPE,EPOCH,MEAN_MOTION,ECCENTRICITY,INCLINATION,RA_OF_ASC_NODE,ARG_OF_PERICENTER,MEAN_ANOMALY,BSTAR,MEAN_MOTION_DOT,MEAN_MOTION_DDOT,TLE_LINE0,TLE_LINE1,TLE_LINE2,SEMIMAJOR_AXIS,PERIOD,APOGEE,PERIGEE,DECAYED
54771.0,STARLINK-5451,PAYLOAD,2024-08-13 07:49:14,15.08882307,8.54e-05,53.2158,92.8539,153.9053,206.1983,0.00084136,0.00013143,0.0,0 STARLINK-5451,1 54771U 22175P   24226.32585902  .00013143  00000-0  84136-3 0  9998,2 54771  53.2158  92.8539 0000854 153.9053 206.1983 15.08882307 93439,6917.751,95.435,540.207,539.025,0.0
54771.0,STARLINK-5451,PAYLOAD,2024-08-13 15:46:11,15.08802747,0.0001242,53.219,91.3633,95.55,264.5634,-0.001296,-0.00020833,0.0,0 STARLINK-5451,1 54771U 22175P   24226.65707965 -.00020833  00000-0 -12960-2 0  9990,2 54771  53.2190  91.3633 0001242  95.5500 264.5634 15.08802747 91321,6917.994,95.44,540.718,539.0,0.0
54771.0,STARLINK-5451,PAYLOAD,2024-08-13 23:43:08,15.08801845,0.000169,53.2178,89.8779,99.0527,261.0656,-0.00091089,-0.00014741,0.0,0 STARLINK-5451,1 54771U 22175P   24226.98828759 -.00014741  00000-0 -91089-3 0  9992,2 54771  53.2178  89.8779 0001690  99.0527 261.0656 15.08801845 91374,6917.997,95.44,541.031,538.693,0.0
54771.0,STARLINK-5451,PAYLOAD,2024-08-14 07:40:04,15.08809264,0.0001557,53.2181,88.391,97.4516,262.6653,-0.0002092,-3.613e-05,0.0,0 STARLINK-5451,1 54771U 22175P   24227.31949424 -.00003613  00000-0 -20920-3 0  9995,2 54771  53.2181  88.3910 0001557  97.4516 262.6653 15.08809264 91424,6917.974,95.439,540.916,538.762,0.0
54771.0,STARLINK-5451,PAYLOAD,2024-08-14 21:58:33,15.08827133,0.0001357,53.2163,85.7167,90.9267,269.1881,0.0012775,0.00020095,0.0,0 STARLINK-5451,1 54771U 22175P   24227.91566809  .00020095  00000-0  12775-2 0  9992,2 54771  53.2163  85.7167 0001357  90.9267 269.1881 15.08827133 93677,6917.92,95.438,540.723,538.846,0.0
54771.0,STARLINK-5451,PAYLOAD,2024-08-15 07:30:52,15.08845245,0.0001349,53.2164,83.9319,93.783,266.3316,0.0012882,0.00020276,0.0,0 STARLINK-5451,1 54771U 22175P   24228.31310832  .00020276  00000-0  12882-2 0  9990,2 54771  53.2164  83.9319 0001349  93.7830 266.3316 15.08845245 93738,6917.864,95.437,540.663,538.796,0.0
54771.0,STARLINK-5451,PAYLOAD,2024-08-15 21:49:20,15.08867406,0.0001293,53.2159,81.2556,91.1246,268.9894,0.0012571,0.0001979,0.0,0 STARLINK-5451,1 54771U 22175P   24228.90926140  .00019790  00000-0  12571-2 0  9994,2 54771  53.2159  81.2556 0001293  91.1246 268.9894 15.08867406 93829,6917.797,95.436,540.556,538.767,0.0
54771.0,STARLINK-5451,PAYLOAD,2024-08-16 21:40:06,15.08876489,0.000119,53.216,76.7934,117.8377,242.2736,0.0013888,0.00021906,0.0,0 STARLINK-5451,1 54771U 22175P   24229.90284779  .00021906  00000-0  13888-2 0  9994,2 54771  53.2160  76.7934 0001190 117.8377 242.2736 15.08876489 93974,6917.769,95.435,540.457,538.811,0.0
54771.0,STARLINK-5451,PAYLOAD,2024-08-16 23:15:29,15.08868955,0.0001773,53.215,76.4998,64.3746,295.743,0.00088803,0.00013884,0.0,0 STARLINK-5451,1 54771U 22175P   24229.96909154  .00013884  00000-0  88803-3 0  9997,2 54771  53.2150  76.4998 0001773  64.3746 295.7430 15.08868955 91828,6917.792,95.436,540.883,538.43,0.0
54771.0,STARLINK-5451,PAYLOAD,2024-08-17 13:33:57,15.08849884,0.0001272,53.2156,73.8207,92.9059,267.2079,0.00040146,6.109e-05,0.0,0 STARLINK-5451,1 54771U 22175P   24230.56524731  .00006109  00000-0  40146-3 0  9999,2 54771  53.2156  73.8207 0001272  92.9059 267.2079 15.08849884 91919,6917.85,95.437,540.595,538.835,0.0
54771.0,STARLINK-5451,PAYLOAD,2024-08-18 13:24:44,15.08852779,0.0001791,53.2157,69.3613,321.2386,38.8478,0.0010074,0.00015787,0.0,0 STARLINK-5451,1 54771U 22175P   24231.55885103  .00015787  00000-0  10074-2 0  9990,2 54771  53.2157  69.3613 0001791 321.2386  38.8478 15.08852779 92067,6917.841,95.437,540.945,538.467,0.0
54771.0,STARLINK-5451,PAYLOAD,2024-08-18 19:46:16,15.08852362,0.0001329,53.2159,68.1685,96.1255,263.9889,0.00041465,6.32e-05,0.0,0 STARLINK-5451,1 54771U 22175P   24231.82380675  .00006320  00000-0  41465-3 0  9996,2 54771  53.2159  68.1685 0001329  96.1255 263.9889 15.08852362 92105,6917.843,95.437,540.627,538.788,0.0
54771.0,STARLINK-5451,PAYLOAD,2024-08-20 19:27:51,15.08852054,0.000146,53.2173,59.2479,103.0027,257.1128,0.00028618,4.271e-05,0.0,0 STARLINK-5451,1 54771U 22175P   24233.81100699  .00004271  00000-0  28618-3 0  9991,2 54771  53.2173  59.2479 0001460 103.0027 257.1128 15.08852054 92406,6917.844,95.437,540.719,538.699,0.0
54771.0,STARLINK-5451,PAYLOAD,2024-08-20 22:38:37,15.08854545,0.0001495,53.2166,58.6513,109.4001,250.7153,0.00032658,4.915e-05,0.0,0 STARLINK-5451,1 54771U 22175P   24233.94348502  .00004915  00000-0  32658-3 0  9996,2 54771  53.2166  58.6513 0001495 109.4001 250.7153 15.08854545 94585,6917.836,95.437,540.735,538.667,0.0
54771.0,STARLINK-5451,PAYLOAD,2024-08-21 17:43:15,15.08842874,0.0001098,53.2175,55.0889,88.8119,271.2999,-0.00010015,-1.881e-05,0.0,0 STARLINK-5451,1 54771U 22175P   24234.73837012 -.00001881  00000-0 -10015-3 0  9997,2 54771  53.2175  55.0889 0001098  88.8119 271.2999 15.08842874 94703,6917.872,95.437,540.496,538.977,0.0
54771.0,STARLINK-5451,PAYLOAD,2024-08-21 22:29:24,15.08841597,0.0001077,53.2172,54.1962,69.3089,290.8019,-8.1392e-05,-1.583e-05,0.0,0 STARLINK-5451,1 54771U 22175P   24234.93709085 -.00001583  00000-0 -81392-4 0  9993,2 54771  53.2172  54.1962 0001077  69.3089 290.8019 15.08841597 92573,6917.876,95.437,540.486,538.995,0.0
